GSAT0222 (PRN E33)      
1 43565U 18060B   22340.55728041 -.00000091  00000+0  00000+0 0  9990
2 43565  57.2289  16.5332 0004789 274.8567  85.1502  1.70475997 27240
GSAT0219 (PRN E36)      
1 43566U 18060C   22341.36440219 -.00000090  00000+0  00000+0 0  9998
2 43566  57.2295  16.5135 0004467 274.9790  85.0319  1.70476092 27232
GSAT0220 (PRN E13)      
1 43567U 18060D   22340.99807399 -.00000091  00000+0  00000+0 0  9994
2 43567  57.2306  16.5234 0006298 273.0020  86.9877  1.70476049 27215
BEIDOU-3 M9 (C23)       
1 43581U 18062A   22341.80322127  .00000048  00000+0  00000+0 0  9995
2 43581  54.2305 226.1554 0003394 307.3941 260.7284  1.86231952 29651
BEIDOU-3 M10 (C24)      
1 43582U 18062B   22342.19992521  .00000048  00000+0  00000+0 0  9990
2 43582  54.2293 226.1309 0006574  16.4008 189.6758  1.86231535 29664
BEIDOU-3 M11 (C25)      
1 43602U 18067A   22341.68310421  .00000051  00000+0  00000+0 0  9998
2 43602  54.3140 224.7793 0007852  14.3245 246.2297  1.86231524 29149
BEIDOU-3 M12 (C26)      
1 43603U 18067B   22341.74176295  .00000051  00000+0  00000+0 0  9995
2 43603  54.3116 224.7432 0004788   7.4654 202.7595  1.86231475 29160
BEIDOU-3 M13 (C32)      
1 43622U 18072A   22341.43318814 -.00000032  00000+0  00000+0 0  9993
2 43622  55.5861 105.5460 0004457 277.0957 115.0367  1.86231454 28677
BEIDOU-3 M14 (C33)      
1 43623U 18072B   22341.79073039 -.00000031  00000+0  00000+0 0  9999
2 43623  55.5892 105.5265 0002071 317.7673  44.3171  1.86231412 28684
BEIDOU-3 M15 (C34)      
1 43647U 18078A   22341.65988847 -.00000099  00000+0  10000-3 0  9997
2 43647  55.0542 344.6498 0006214 352.3494 177.8329  1.86232531 28185
BEIDOU-3 M16 (C35)      
1 43648U 18078B   22341.81400841 -.00000099  00000+0  00000+0 0  9994
2 43648  55.0500 344.6501 0003773 354.9683 185.9913  1.86232169 28209
BEIDOU-3 G1 (C59)       
1 43683U 18085A   22341.24056109 -.00000265  00000+0  00000+0 0  9997
2 43683   1.1227 141.5578 0004323  74.6458  86.3242  1.00266558 15145
COSMOS 2529 (757)       
1 43687U 18086A   22341.80507313  .00000037  00000+0  00000+0 0  9998
2 43687  64.3392 236.2386 0009079 270.1634 297.3560  2.13102114 31859
BEIDOU-3 M17 (C36)      
1 43706U 18093A   22341.15740511  .00000048  00000+0  00000+0 0  9997
2 43706  54.3118 226.0748 0007930 288.3375  71.6669  1.86232063 27553
BEIDOU-3 M18 (C37)      
1 43707U 18093B   22341.31819698  .00000048  00000+0  00000+0 0  9999
2 43707  54.3134 226.0604 0007731 316.1695 243.0316  1.86232297 27549
GPS BIII-1  (PRN 04)    
1 43873U 18109A   22341.00505889  .00000048  00000+0  00000+0 0  9991
2 43873  55.1249 143.0823 0022220 187.6035  44.3382  2.00556826 29236
BEIDOU-3 IGSO-1 (C38)   
1 44204U 19023A   22341.70480456 -.00000236  00000+0  00000+0 0  9995
2 44204  56.8132  51.1221 0024264 194.6065 202.1085  1.00257350 13456
BEIDOU-2 G8             
1 44231U 19027A   22341.86700184 -.00000233  00000+0  00000+0 0  9996
2 44231   1.2817  80.1426 0006419 130.2722 322.8850  1.00271877 13165
COSMOS 2534 (758)       
1 44299U 19030A   22341.94435280  .00000038  00000+0  00000+0 0  9997
2 44299  64.4114 236.1346 0011905 290.7804 157.9935  2.13101844 27508
BEIDOU-3 IGSO-2 (C39)   
1 44337U 19035A   22341.93324721 -.00000044  00000+0  00000+0 0  9999
2 44337  55.1337 170.1826 0025926 188.2077 171.0097  1.00250882 12788
GPS BIII-2  (PRN 18)    
1 44506U 19056A   22341.74250028 -.00000094  00000+0  00000+0 0  9992
2 44506  55.7481  22.1655 0029805 185.6377 119.2879  2.00559907 24249
BEIDOU-3 M23 (C45)      
1 44542U 19061A   22341.63083752  .00000049  00000+0  00000+0 0  9993
2 44542  54.5385 226.2351 0008929 354.8737   5.2096  1.86231579 21813
BEIDOU-3 M24 (C46)      
1 44543U 19061B   22341.74667538  .00000049  00000+0  00000+0 0  9996
2 44543  54.5375 226.2003 0005848 343.9460   5.3241  1.86231889 21802
BEIDOU-3 IGSO-3         
1 44709U 19073A   22341.78933785 -.00000210  00000+0  10000-3 0  9993
2 44709  56.9865 294.5793 0026304 183.1719   0.8994  1.00256322 11530
BEIDOU-3 M21            
1 44793U 19078A   22341.20656920 -.00000099  00000+0  10000-3 0  9996
2 44793  54.9033 344.6669 0005720 358.3944 181.4818  1.86232200 20660
BEIDOU-3 M22            
1 44794U 19078B   22341.35331971 -.00000099  00000+0  00000+0 0  9994
2 44794  54.8761 344.6491 0004041 347.2905 202.9394  1.86232668 20666
COSMOS 2544 (759)       
1 44850U 19088A   22341.49933095  .00000002  00000+0  16595+1 0  9998
2 44850  64.9982 116.8843 0011029 249.7155 203.0897  2.13102187 23265
BEIDOU-3 M19            
1 44864U 19090A   22341.85540890 -.00000031  00000+0  00000+0 0  9999
2 44864  55.5214 105.7335 0015483 266.9516  94.2036  1.86231781 20261
BEIDOU-3 M20            
1 44865U 19090B   22341.74154179 -.00000031  00000+0  00000+0 0  9999
2 44865  55.5229 105.7697 0013220 281.7449  92.9052  1.86231713 20231
BEIDOU-3 G2             
1 45344U 20017A   22341.87132514 -.00000128  00000+0  00000+0 0  9993
2 45344   1.9957   1.2748 0002166 213.4130 255.6571  1.00272215 10354
COSMOS 2545 (760)       
1 45358U 20018A   22341.57620299 -.00000065  00000+0  00000+0 0  9998
2 45358  64.9001 357.3070 0011606 248.8096 112.2335  2.13102627 21221
BEIDOU-3 G3             
1 45807U 20040A   22341.84395000 -.00000338  00000+0  00000+0 0  9994
2 45807   1.0625 310.4712 0009294 340.7817 199.6970  1.00268110  9168
GPS BIII-3  (PRN 23)    
1 45854U 20041A   22341.40841462 -.00000070  00000+0  00000+0 0  9990
2 45854  55.6587  79.4490 0029064 182.2567 181.4877  2.00567937 18216
GALAXY 30 (WAAS/PRN 135)
1 46114U 20056C   22341.63994434  .00000052  00000+0  00000+0 0  9998
2 46114   0.0148 320.6827 0002380 293.1668 287.9248  1.00271020  8389
GPS BIII-4  (PRN 14)    
1 46826U 20078A   22342.05401258 -.00000018  00000+0  00000+0 0  9999
2 46826  54.4590 263.0486 0024793 190.1713 256.1824  2.00565191 15688
GPS BIII-5  (PRN 11)    
1 48859U 21054A   22341.68917356 -.00000095  00000+0  00000+0 0  9996
2 48859  55.2583  24.0827 0009129 213.2733 154.3915  2.00563733 10939
